C/2015 V2 (Johnson),h,06/12.1752/2017,49.8716,69.8604,164.9804,1.001846,1.641271,2000,5.0,4.0
# From MPC102953
C/2015 V3 (PANSTARRS),e,86.2424,2.2563,0.7115,627.3810,0.0000627,0.99325518,0.0000,11/23.9990/2015,2000,g  9.0,4.0
# From MPC104791
C/2015 V4 (PANSTARRS),e,60.7659,179.9152,307.0429,18.50270,0.0123837,0.70471767,16.2255,03/31.0/2020,2000,g  8.5,4.0
# From MPC115881
C/2015 VL62 (Lemmon-Yeung-PANSTARRS),h,08/28.0450/2017,165.8152,95.0898,128.7294,1.001128,2.714219,2000,8.0,4.0
# From MPC102098
C/2015 WZ (PANSTARRS),e,134.5713,40.1445,66.6700,146.4112,0.0005563,0.99058850,0.0000,04/14.0035/2016,2000,g 15.0,4.0
# From MPC109142
C/2015 W1 (Gibbs),e,87.3730,114.3160,48.1972,23345,0.0000003,0.99990395,0.0000,05/15.0379/2016,2000,g 13.0,4.0
# From MPC101098
P/2015 W2 (Catalina),e,11.6070,294.2546,117.5554,7.300677,0.0499642,0.63339047,82.1360,03/31.0/2020,2000,g 13.0,4.0
# From MPC101098
P/2015 X1 (PANSTARRS),e,12.1517,161.7733,218.9810,3.630763,0.1424647,0.41891098,233.1287,03/31.0/2020,2000,g 16.0,4.0
# From MPEC 2020-AA5
C/2015 XY1 (Lemmon),h,04/28.5598/2018,148.8557,281.6256,196.2763,1.003800,7.925812,2000,5.5,4.0
# From MPC100281
C/2015 X2 (Catalina),e,72.0861,101.1000,42.3610,15.82023,0.0156634,0.87822989,24.5005,03/31.0/2020,2000,g 16.0,4.0
# From MPC 97498
P/2015 X3 (PANSTARRS),e,24.3827,77.3316,306.6623,5.011734,0.0878460,0.43824929,149.1456,03/31.0/2020,2000,g 15.0,4.0
# From MPC109142
C/2015 X4 (Elenin),e,29.5014,262.6192,176.2596,17.96152,0.0129476,0.81114936,20.8535,03/31.0/2020,2000,g 10.0,4.0
# From MPC119995
C/2015 X5 (PANSTARRS),h,12/30.1186/2017,124.3079,122.3434,27.7002,1.002782,6.799424,2000,7.5,4.0
# From MPC115881
P/2015 X6 (PANSTARRS),e,4.5648,106.9470,329.9008,2.752463,0.2158350,0.17233700,316.7818,03/31.0/2020,2000,g 16.0,4.0
# From MPC109143
C/2015 X7 (ATLAS),h,07/29.5024/2016,57.5623,139.9131,348.4506,1.000188,3.684799,2000,9.0,4.0
# From MPC107048
C/2015 X8 (NEOWISE),e,155.2078,191.1520,20.4221,19.76240,0.0112188,0.93999743,18.1722,03/31.0/2020,2000,g 16.0,4.0
# From MPC109143
C/2015 Y1 (LINEAR),e,71.1731,135.8129,24.6912,253.9803,0.0002435,0.99009167,0.0000,05/14.2191/2016,2000,g 12.0,4.0
# From MPC105543
C/2015 YG1 (NEOWISE),e,57.2783,350.5323,102.5137,17.00773,0.0140519,0.87852685,23.1329,03/31.0/2020,2000,g 13.0,4.0
# From MPC119995
C/2016 A1 (PANSTARRS),h,11/22.9856/2017,121.2048,128.2022,10.2856,1.001916,5.325472,2000,6.0,4.0
# From MPC100282
P/2016 A2 (Christensen),e,26.4070,291.6138,141.6309,4.749171,0.0952308,0.27123341,166.1156,03/31.0/2020,2000,g 11.5,4.0
# From MPC115881
P/2016 A3 (PANSTARRS),e,8.5119,187.3150,340.8251,7.889113,0.0444797,0.38810356,47.4394,03/31.0/2020,2000,g 10.0,4.0
# From MPC109143
C/2016 A5 (PANSTARRS),e,40.2401,136.1730,321.5291,660.3045,0.0000581,0.99554136,0.0000,06/26.7947/2015,2000,g 13.5,4.0
# From MPC109143
C/2016 A6 (PANSTARRS),e,120.9356,300.3703,141.0690,206.9113,0.0003312,0.98837135,0.0000,11/06.3500/2015,2000,g 15.0,4.0
# From MPC102098
P/2016 A7 (PANSTARRS),e,16.6287,221.4770,352.6281,5.030459,0.0873560,0.56566785,130.6633,03/31.0/2020,2000,g 16.0,4.0
# From MPC106345
C/2016 A8 (LINEAR),e,148.2430,111.3349,130.3631,34.27659,0.0049114,0.94499369,6.4312,03/31.0/2020,2000,g 12.0,4.0
# From MPC107048
C/2016 B1 (NEOWISE),e,50.4670,231.9761,8.6681,440.6551,0.0001066,0.99270902,0.0000,12/04.8070/2016,2000,g  9.5,4.0
# From MPC109143
P/2016 BA14 (PANSTARRS),e,18.8971,180.5364,351.9080,3.024141,0.1874135,0.66527150,276.9159,03/31.0/2020,2000,g 21.0,4.0
# From MPC110494
C/2016 C1 (PANSTARRS),h,02/19.1953/2016,56.2155,181.8007,328.7765,1.002538,8.466920,2000,5.5,4.0
# From MPC101098
C/2016 C2 (NEOWISE),e,38.0888,24.4227,214.5360,65.91073,0.0018419,0.97624305,0.0000,04/19.5812/2016,2000,g 16.0,4.0
# From MPC110494
C/2016 E1 (PANSTARRS),h,06/04.0438/2017,131.8917,233.0574,47.4588,1.005532,8.179746,2000,6.5,4.0
# From MPC 99821
C/2016 E2 (Kowalski),e,135.9109,186.8343,321.9221,139.6876,0.0005970,0.99229603,0.0000,02/06.7795/2016,2000,g 20.0,4.0
# From MPC102098
P/2016 G1 (PANSTARRS),e,10.9691,204.0594,111.2943,2.582358,0.2375087,0.21091828,275.3352,03/31.0/2020,2000,g 14.0,4.0
# From MPEC 2017-D91
P/2016 J1-A (PANSTARRS),e,14.3247,199.8308,46.8596,3.174276,0.1742757,0.22820807,239.5426,03/31.0/2020,2000,g 16.5,4.0
# From MPEC 2017-A77
P/2016 J1-B (PANSTARRS),e,14.3275,199.8356,46.7507,3.173906,0.1743062,0.22805922,239.6592,03/31.0/2020,2000,g 17.0,4.0
# From MPC101099
C/2016 J2 (Denneau),e,130.3387,186.3461,318.6267,629.1013,0.0000625,0.99758216,0.0000,04/12.0961/2016,2000,g 17.0,4.0
# From MPC102099
C/2016 KA (Catalina),e,104.6803,317.5104,63.1899,5479,0.0000024,0.99901326,0.0000,02/02.1604/2016,2000,g  8.5,4.0
# From MPC104792
C/2016 K1 (LINEAR),e,90.9139,325.6316,18.2733,19386,0.0000004,0.99988170,0.0000,07/13.2908/2016,2000,g 13.0,4.0
# From MPC119995
C/2016 M1 (PANSTARRS),e,91.0001,92.2033,209.8675,3553,0.0000047,0.99937747,0.0000,08/10.2711/2018,2000,g  5.0,4.0
# From MPC115881
C/2016 N4 (MASTER),e,72.5893,354.0040,55.9403,2395,0.0000084,0.99866451,0.0000,09/16.4667/2017,2000,g  8.5,4.0
# From MPC119995
C/2016 N6 (PANSTARRS),e,105.8406,298.9874,162.7712,1819,0.0000127,0.99853299,0.0000,07/18.1233/2018,2000,g  7.0,4.0
# From MPC102099
P/2016 P1 (PANSTARRS),e,24.4541,319.5647,270.0427,3.194969,0.1725854,0.28938325,284.7423,03/31.0/2020,2000,g 15.0,4.0
# From MPC102099
C/2016 P4 (PANSTARRS),e,29.8815,320.7397,356.1471,392.3328,0.0001268,0.98498126,0.0000,10/17.8632/2016,2000,g 10.5,4.0
# From MPC118093
C/2016 Q2 (PANSTARRS),e,109.3903,322.3006,84.4910,14108,0.0000006,0.99949798,0.0000,05/11.4218/2021,2000,g  6.0,4.0
# From MPC102955
C/2016 Q4 (Kowalski),e,7.2576,271.2848,99.3940,16.89106,0.0141977,0.58052235,11.2777,03/31.0/2020,2000,g  7.0,4.0
# From MPC119995
C/2016 R2 (PANSTARRS),e,58.2248,80.5695,33.1888,574.1489,0.0000716,0.99546608,0.0000,05/09.3857/2018,2000,g  7.0,4.0
# From MPC102099
C/2016 R3 (Borisov),e,53.0435,78.6534,118.1908,200.1339,0.0003481,0.99774467,0.0000,10/10.5353/2016,2000,g 18.0,4.0
# From MPC109144
P/2016 R4 (Gibbs),e,10.8681,168.2875,173.9951,5.331692,0.0800583,0.47591717,107.9901,03/31.0/2020,2000,g 12.5,4.0
# From MPC105543
P/2016 S1 (PANSTARRS),e,94.6505,227.5194,273.2680,8.279769,0.0413692,0.71020741,45.9468,03/31.0/2020,2000,g 12.0,4.0
# From MPC105238
C/2016 T1 (Matheny),e,129.8464,56.2752,137.3924,123.4267,0.0007188,0.98134070,0.0000,02/01.2900/2017,2000,g 14.5,4.0
# From MPC107685
C/2016 T2 (Matheny),e,81.3635,339.1468,92.2515,99.15629,0.0009982,0.98076777,0.0000,12/29.0043/2016,2000,g 14.5,4.0
# From MPC110082
C/2016 T3 (PANSTARRS),e,22.6773,271.7418,194.6832,134.2369,0.0006337,0.98025529,0.0000,09/06.6236/2017,2000,g 10.5,4.0
# From MPC103847
C/2016 U1 (NEOWISE),h,01/14.0191/2017,46.3976,61.4613,162.8304,1.000397,0.321651,2000,17.0,4.0
# From MPC106345
C/2016 VZ18 (PANSTARRS),e,23.9937,98.9230,36.4140,171.1525,0.0004402,0.99466250,0.0000,03/06.3000/2017,2000,g 19.5,4.0
# From MPC106345
P/2016 WM48 (Lemmon),e,117.4223,59.9019,36.0891,8.170425,0.0422024,0.78413999,47.7166,03/31.0/2020,2000,g 15.0,4.0
# From MPC119995
C/2016 X1 (Lemmon),e,26.4546,256.4220,224.5286,1427,0.0000183,0.99469980,0.0000,04/29.2160/2019,2000,g  6.0,4.0
# From MPC108594
C/2017 A1 (PANSTARRS),e,49.7934,121.0421,2.0647,77.31117,0.0014499,0.97035008,0.0000,05/16.5119/2017,2000,g 13.0,4.0
# From MPC108594
C/2017 A3 (Elenin),e,98.5371,97.9077,304.0525,43.48994,0.0034365,0.91147042,3.9701,03/31.0/2020,2000,g  9.5,4.0
# From MPC114598
C/2017 AB5 (PANSTARRS),e,32.4343,42.6620,78.3594,2872,0.0000064,0.99679146,0.0000,02/16.4367/2018,2000,g  5.5,4.0
# From MPC119995
C/2017 B3 (LINEAR),h,02/02.6236/2019,54.1763,2.1791,284.7762,1.001929,3.921766,2000,6.0,4.0
# From MPC103847
P/2017 B4 (PANSTARRS),e,20.0584,121.4578,11.0197,4.410520,0.1064068,0.36495152,359.9130,01/05.0/2017,2000,g 14.5,4.0
# From MPC104793
C/2017 C1 (NEOWISE),e,65.7443,357.4919,110.1282,20.61980,0.0105263,0.92720515,12.2897,03/31.0/2020,2000,g 18.0,4.0
# From MPC107685
C/2017 C2 (PANSTARRS),e,118.5890,249.8104,138.6580,97.35507,0.0010260,0.97508792,0.0000,01/21.6067/2017,2000,g 14.0,4.0
# From MPC104793
P/2017 D1 (Fuls),e,20.7598,82.1781,8.1067,4.829780,0.0928567,0.43672656,127.6073,03/31.0/2020,2000,g 14.0,4.0
# From MPC112391
C/2017 D2 (Barros),e,31.2565,330.9822,334.4516,2952,0.0000061,0.99915732,0.0000,07/14.8101/2017,2000,g 11.0,4.0
# From MPC114598
C/2017 D3 (ATLAS),h,04/27.2271/2017,125.5768,186.6490,340.8512,1.001979,4.973956,2000,8.0,4.0
# From MPC110495
P/2017 D4 (PANSTARRS),e,10.5295,264.9382,212.3272,7.569479,0.0473266,0.62870601,61.6107,03/31.0/2020,2000,g 13.0,4.0
# From MPC104794
C/2017 D5 (PANSTARRS),e,131.0592,92.7354,287.7908,114.9529,0.0007997,0.98118118,0.0000,01/09.3205/2017,2000,g 16.0,4.0
# From MPC106346
C/2017 E1 (Borisov),h,04/10.4781/2017,14.5655,142.6107,152.6157,1.002980,0.900700,2000,14.0,4.0
# From MPC109144
C/2017 E2 (Tsuchinshan),e,79.0404,11.5785,89.3881,21.54342,0.0098567,0.89085011,13.9911,03/31.0/2020,2000,g 11.5,4.0
# From MPC115882
C/2017 E3 (PANSTARRS),h,06/08.1752/2017,70.6256,220.7294,334.5158,1.007063,5.936953,2000,6.5,4.0
# From MPC105239
C/2017 E4 (Lovejoy),h,04/23.5450/2017,88.1243,223.1095,87.0745,1.001502,0.491585,2000,17.0,4.0
# From MPC105239
C/2017 E5 (Lemmon),e,122.6616,206.2901,306.8863,387.4708,0.0001292,0.99538562,0.0000,06/10.5649/2016,2000,g 13.0,4.0
# From MPC111769
C/2017 F1 (Lemmon),h,11/30.5784/2017,146.4702,158.7796,64.7867,1.004202,4.497502,2000,10.5,4.0
# From MPC114598
C/2017 F2 (PANSTARRS),h,11/27.7897/2017,42.5107,38.6699,135.0487,1.004505,6.931662,2000,7.5,4.0
# From MPC104794
P/2017 G1 (PANSTARRS),e,4.7741,249.6276,224.5791,7.292723,0.0500460,0.65325111,71.6903,03/31.0/2020,2000,g 13.5,4.0
# From MPC108595
P/2017 G2 (PANSTARRS),e,47.9506,79.7953,105.5999,8.077891,0.0429296,0.64862165,43.9077,03/31.0/2020,2000,g 13.0,4.0
# From MPC109144
C/2017 G3 (PANSTARRS),e,159.0588,279.4802,73.1503,307.2879,0.0001830,0.99156704,0.0000,04/15.4465/2017,2000,g 14.0,4.0
# From MPC115882
